{"type": "FeatureCollection", "features": [ {"type": "Feature", "properties": {"norad_id": 66430, "name": "STARLINK-35470", "group": "last-30-days", "lat": -1.7323887319699027, "lon": 63.98663563810624, "alt_km": 443.81483331860727, "timestamp": "2025-12-09T14:52:24.940576+00:00", "meta": {"OBJECT_NAME": "STARLINK-35470", "OBJECT_ID": "2025-259J", "EPOCH": "2025-12-09T08:00:01.999872", "MEAN_MOTION": 15.40646552, "ECCENTRICITY": 0.00017726, "INCLINATION": 43.0008, "RA_OF_ASC_NODE": 67.4971, "ARG_OF_PERICENTER": 280.2057, "MEAN_ANOMALY": 287.079, "EPHEMERIS_TYPE": 0, "CLASSIFICATION_TYPE": "U", "NORAD_CAT_ID": 66430, "ELEMENT_SET_NO": 999, "REV_AT_EPOCH": 573, "BSTAR": 0.001146736, "MEAN_MOTION_DOT": 0.00047814, "MEAN_MOTION_DDOT": 0}, "tle": {"line1": "1 66430U 25259J   25343.33335648  .00047814  00000+0  11467-2 0  9998", "line2": "2 66430  43.0008  67.4971 0001772 280.2057 287.0790 15.40646552  5737"}}, "geometry": {"type": "Point", "coordinates": [63.98663563810624, -1.7323887319699027]}}, {"type": "Feature", "properties": {"norad_id": 66431, "name": "STARLINK-35439", "group": "last-30-days", "lat": 6.732717698029307, "lon": 73.0924867222474, "alt_km": 442.982891061738, "timestamp": "2025-12-09T14:52:24.940586+00:00", "meta": {"OBJECT_NAME": "STARLINK-35439", "OBJECT_ID": "2025-259K", "EPOCH": "2025-12-09T08:00:01.999872", "MEAN_MOTION": 15.40876704, "ECCENTRICITY": 9.326e-05, "INCLINATION": 43.0007, "RA_OF_ASC_NODE": 67.4655, "ARG_OF_PERICENTER": 261.506, "MEAN_ANOMALY": 318.0775, "EPHEMERIS_TYPE": 0, "CLASSIFICATION_TYPE": "U", "NORAD_CAT_ID": 66431, "ELEMENT_SET_NO": 999, "REV_AT_EPOCH": 573, "BSTAR": -0.0058602462, "MEAN_MOTION_DOT": -0.00238983, "MEAN_MOTION_DDOT": 0}, "tle": {"line1": "1 66431U 25259K   25343.33335648 -.00238983  00000+0 -58602-2 0  9992", "line2": "2 66431  43.0007  67.4655 0000932 261.5060 318.0775 15.40876704  5731"}}, "geometry": {"type": "Point", "coordinates": [73.0924867222474, 6.732717698029307]}}, {"type": "Feature", "properties": {"norad_id": 66432, "name": "STARLINK-35446", "group": "last-30-days", "lat": 15.033980652123967, "lon": 82.53523449987502, "alt_km": 442.09617482291014, "timestamp": "2025-12-09T14:52:24.940597+00:00", "meta": {"OBJECT_NAME": "STARLINK-35446", "OBJECT_ID": "2025-259L", "EPOCH": "2025-12-09T08:00:01.999872", "MEAN_MOTION": 15.40730413, "ECCENTRICITY": 0.00010177, "INCLINATION": 43.0005, "RA_OF_ASC_NODE": 67.4344, "ARG_OF_PERICENTER": 255.4573, "MEAN_ANOMALY": 336.6828, "EPHEMERIS_TYPE": 0, "CLASSIFICATION_TYPE": "U", "NORAD_CAT_ID": 66432, "ELEMENT_SET_NO": 999, "REV_AT_EPOCH": 573, "BSTAR": -0.0017775285, "MEAN_MOTION_DOT": -0.00073912, "MEAN_MOTION_DDOT": 0}, "tle": {"line1": "1 66432U 25259L   25343.33335648 -.00073912  00000+0 -17775-2 0  9998", "line2": "2 66432  43.0005  67.4344 0001017 255.4573 336.6828 15.40730413  5732"}}, "geometry": {"type": "Point", "coordinates": [82.53523449987502, 15.033980652123967]}}, {"type": "Feature", "properties": {"norad_id": 66433, "name": "STARLINK-35457", "group": "last-30-days", "lat": 22.891087118977964, "lon": 92.69767132755346, "alt_km": 440.9183285477002, "timestamp": "2025-12-09T14:52:24.940607+00:00", "meta": {"OBJECT_NAME": "STARLINK-35457", "OBJECT_ID": "2025-259M", "EPOCH": "2025-12-09T08:00:01.999872", "MEAN_MOTION": 15.40656295, "ECCENTRICITY": 0.00010116, "INCLINATION": 43.0003, "RA_OF_ASC_NODE": 67.4051, "ARG_OF_PERICENTER": 261.5528, "MEAN_ANOMALY": 343.0447, "EPHEMERIS_TYPE": 0, "CLASSIFICATION_TYPE": "U", "NORAD_CAT_ID": 66433, "ELEMENT_SET_NO": 999, "REV_AT_EPOCH": 573, "BSTAR": 0.001219005, "MEAN_MOTION_DOT": 0.00050883, "MEAN_MOTION_DDOT": 0}, "tle": {"line1": "1 66433U 25259M   25343.33335648  .00050883  00000+0  12190-2 0  9995", "line2": "2 66433  43.0003  67.4051 0001011 261.5528 343.0447 15.40656295  5732"}}, "geometry": {"type": "Point", "coordinates": [92.69767132755346, 22.891087118977964]}}, {"type": "Feature", "properties": {"norad_id": 66434, "name": "STARLINK-35389", "group": "last-30-days", "lat": 30.03851434647176, "lon": 104.07884826834143, "alt_km": 439.7539754736208, "timestamp": "2025-12-09T14:52:24.940617+00:00", "meta": {"OBJECT_NAME": "STARLINK-35389", "OBJECT_ID": "2025-259N", "EPOCH": "2025-12-09T08:00:01.999872", "MEAN_MOTION": 15.40664467, "ECCENTRICITY": 8.789e-05, "INCLINATION": 43.0005, "RA_OF_ASC_NODE": 67.3751, "ARG_OF_PERICENTER": 266.5218, "MEAN_ANOMALY": 350.5159, "EPHEMERIS_TYPE": 0, "CLASSIFICATION_TYPE": "U", "NORAD_CAT_ID": 66434, "ELEMENT_SET_NO": 999, "REV_AT_EPOCH": 573, "BSTAR": 0.00091863539, "MEAN_MOTION_DOT": 0.00038217, "MEAN_MOTION_DDOT": 0}, "tle": {"line1": "1 66434U 25259N   25343.33335648  .00038217  00000+0  91864-3 0  9999", "line2": "2 66434  43.0005  67.3751 0000878 266.5218 350.5159 15.40664467  5735"}}, "geometry": {"type": "Point", "coordinates": [104.07884826834143, 30.03851434647176]}}, {"type": "Feature", "properties": {"norad_id": 66435, "name": "STARLINK-35502", "group": "last-30-days", "lat": 36.06315608088011, "lon": 117.09117514954794, "alt_km": 438.8943416773236, "timestamp": "2025-12-09T14:52:24.940630+00:00", "meta": {"OBJECT_NAME": "STARLINK-35502", "OBJECT_ID": "2025-259P", "EPOCH": "2025-12-09T08:00:01.999872", "MEAN_MOTION": 15.40657484, "ECCENTRICITY": 9.743e-05, "INCLINATION": 43, "RA_OF_ASC_NODE": 67.3452, "ARG_OF_PERICENTER": 273.309, "MEAN_ANOMALY": 356.1869, "EPHEMERIS_TYPE": 0, "CLASSIFICATION_TYPE": "U", "NORAD_CAT_ID": 66435, "ELEMENT_SET_NO": 999, "REV_AT_EPOCH": 573, "BSTAR": 0.00094981699, "MEAN_MOTION_DOT": 0.00039522, "MEAN_MOTION_DDOT": 0}, "tle": {"line1": "1 66435U 25259P   25343.33335648  .00039522  00000+0  94982-3 0  9994", "line2": "2 66435  43.0000  67.3452 0000974 273.3090 356.1869 15.40657484  5731"}}, "geometry": {"type": "Point", "coordinates": [117.09117514954794, 36.06315608088011]}}, {"type": "Feature", "properties": {"norad_id": 66436, "name": "STARLINK-35501", "group": "last-30-days", "lat": 42.7475299136764, "lon": 148.33243113131928, "alt_km": 437.9239755947501, "timestamp": "2025-12-09T14:52:24.940640+00:00", "meta": {"OBJECT_NAME": "STARLINK-35501", "OBJECT_ID": "2025-259Q", "EPOCH": "2025-12-09T08:00:01.999872", "MEAN_MOTION": 15.40863235, "ECCENTRICITY": 0.00010942, "INCLINATION": 43.0003, "RA_OF_ASC_NODE": 67.2832, "ARG_OF_PERICENTER": 296.2808, "MEAN_ANOMALY": 358.0065, "EPHEMERIS_TYPE": 0, "CLASSIFICATION_TYPE": "U", "NORAD_CAT_ID": 66436, "ELEMENT_SET_NO": 999, "REV_AT_EPOCH": 573, "BSTAR": -0.0073875159, "MEAN_MOTION_DOT": -0.00298736, "MEAN_MOTION_DDOT": 0}, "tle": {"line1": "1 66436U 25259Q   25343.33335648 -.00298736  00000+0 -73875-2 0  9998", "line2": "2 66436  43.0003  67.2832 0001094 296.2808 358.0065 15.40863235  5733"}}, "geometry": {"type": "Point", "coordinates": [148.33243113131928, 42.7475299136764]}}, {"type": "Feature", "properties": {"norad_id": 66437, "name": "STARLINK-35474", "group": "last-30-days", "lat": 42.589187101078146, "lon": 165.06046158217367, "alt_km": 436.5137616856209, "timestamp": "2025-12-09T14:52:24.940651+00:00", "meta": {"OBJECT_NAME": "STARLINK-35474", "OBJECT_ID": "2025-259R", "EPOCH": "2025-12-09T08:00:01.999872", "MEAN_MOTION": 15.42627325, "ECCENTRICITY": 0.00014094, "INCLINATION": 43.0003, "RA_OF_ASC_NODE": 67.2574, "ARG_OF_PERICENTER": 276.252, "MEAN_ANOMALY": 29.091, "EPHEMERIS_TYPE": 0, "CLASSIFICATION_TYPE": "U", "NORAD_CAT_ID": 66437, "ELEMENT_SET_NO": 999, "REV_AT_EPOCH": 573, "BSTAR": -0.052618166, "MEAN_MOTION_DOT": -0.02078829, "MEAN_MOTION_DDOT": 0}, "tle": {"line1": "1 66437U 25259R   25343.33335648 -.02078829  00000+0 -52618-1 0  9991", "line2": "2 66437  43.0003  67.2574 0001409 276.2520  29.0910 15.42627325  5730"}}, "geometry": {"type": "Point", "coordinates": [165.06046158217367, 42.589187101078146]}}, {"type": "Feature", "properties": {"norad_id": 66438, "name": "STARLINK-34681", "group": "last-30-days", "lat": 27.9985244854587, "lon": -149.283109488967, "alt_km": 416.2833790174773, "timestamp": "2025-12-09T14:52:24.940661+00:00", "meta": {"OBJECT_NAME": "STARLINK-34681", "OBJECT_ID": "2025-259S", "EPOCH": "2025-12-08T22:50:08.479392", "MEAN_MOTION": 15.51161578, "ECCENTRICITY": 0.001341, "INCLINATION": 43.0001, "RA_OF_ASC_NODE": 69.4198, "ARG_OF_PERICENTER": 340.5271, "MEAN_ANOMALY": 19.5076, "EPHEMERIS_TYPE": 0, "CLASSIFICATION_TYPE": "U", "NORAD_CAT_ID": 66438, "ELEMENT_SET_NO": 999, "REV_AT_EPOCH": 547, "BSTAR": 0.0023827, "MEAN_MOTION_DOT": 0.00145528, "MEAN_MOTION_DDOT": 0}, "tle": {"line1": "1 66438U 25259S   25342.95148703  .00145528  00000+0  23827-2 0  9991", "line2": "2 66438  43.0001  69.4198 0013410 340.5271  19.5076 15.51161578  5479"}}, "geometry": {"type": "Point", "coordinates": [-149.283109488967, 27.9985244854587]}}, {"type": "Feature", "properties": {"norad_id": 66439, "name": "STARLINK-35327", "group": "last-30-days", "lat": 40.462158762210784, "lon": 131.91413518754638, "alt_km": 438.219099581057, "timestamp": "2025-12-09T14:52:24.940671+00:00", "meta": {"OBJECT_NAME": "STARLINK-35327", "OBJECT_ID": "2025-259T", "EPOCH": "2025-12-09T08:00:01.999872", "MEAN_MOTION": 15.40660192, "ECCENTRICITY": 8.542e-05, "INCLINATION": 43.0003, "RA_OF_ASC_NODE": 67.3157, "ARG_OF_PERICENTER": 265.5302, "MEAN_ANOMALY": 16.3956, "EPHEMERIS_TYPE": 0, "CLASSIFICATION_TYPE": "U", "NORAD_CAT_ID": 66439, "ELEMENT_SET_NO": 999, "REV_AT_EPOCH": 573, "BSTAR": 0.00092207535, "MEAN_MOTION_DOT": 0.00038356, "MEAN_MOTION_DDOT": 0}, "tle": {"line1": "1 66439U 25259T   25343.33335648  .00038356  00000+0  92208-3 0  9991", "line2": "2 66439  43.0003  67.3157 0000854 265.5302  16.3956 15.40660192  5738"}}, "geometry": {"type": "Point", "coordinates": [131.91413518754638, 40.462158762210784]}}]}